IRIDIUM 155             
1 43573U 18061E   24043.53974514  .00000295  00000+0  98141-4 0  9991
2 43573  86.3925  54.2670 0001941  88.1619 271.9799 14.34220116290716
IRIDIUM 154             
1 43574U 18061F   24043.52072345 -.00000038  00000+0 -20538-4 0  9994
2 43574  86.3927  54.3670 0002284  88.1150 272.0308 14.34216997290766
IRIDIUM 163             
1 43575U 18061G   24043.57146783  .00000260  00000+0  85612-4 0  9997
2 43575  86.3927  54.2876 0002247  88.3571 271.7882 14.34218989290746
IRIDIUM 156             
1 43576U 18061H   24043.54608480  .00000051  00000+0  11168-4 0  9995
2 43576  86.3928  54.3041 0002160  98.3207 261.8234 14.34215585290733
IRIDIUM 164             
1 43577U 18061J   24043.52706512  .00000010  00000+0 -34276-5 0  9991
2 43577  86.3925  54.3392 0002253  95.0144 265.1309 14.34216920290775
IRIDIUM 159             
1 43578U 18061K   24043.49535130  .00000014  00000+0 -22103-5 0  9994
2 43578  86.3927  54.3075 0002265  87.8546 272.2909 14.34216612290733
IRIDIUM 180             
1 43922U 19002A   24043.35531061  .00000138  00000+0  42143-4 0  9998
2 43922  86.4015 351.2620 0002211  85.7605 274.3843 14.34217656266321
IRIDIUM 176             
1 43923U 19002B   24043.37757839  .00002494  00000+0  39145-3 0  9998
2 43923  86.6147 351.2814 0002465  91.6273 268.5227 14.72259076273337
IRIDIUM 168             
1 43924U 19002C   24043.34896824  .00000182  00000+0  58004-4 0  9992
2 43924  86.4017 351.3177 0002209  83.1526 276.9921 14.34218044266309
IRIDIUM 173             
1 43925U 19002D   24043.40604870  .00000030  00000+0  34878-5 0  9994
2 43925  86.4013 351.2181 0002196  79.6617 280.4826 14.34216088266294
IRIDIUM 169             
1 43926U 19002E   24043.43805427  .00000822  00000+0  26211-3 0  9998
2 43926  86.4235  22.7984 0000834 334.2373  25.8784 14.38615935267190
IRIDIUM 172             
1 43927U 19002F   24043.39969973  .00000656  00000+0  22701-3 0  9996
2 43927  86.4013 351.2258 0002236  86.2354 273.9097 14.34218610266300
IRIDIUM 175             
1 43928U 19002G   24043.50758724  .00002578  00000+0  40472-3 0  9990
2 43928  86.1554 331.4865 0002340  84.8007 275.3476 14.72253616273343
IRIDIUM 171             
1 43929U 19002H   24043.38068186  .00000000  00000+0 -72385-5 0  9992
2 43929  86.4018 351.4452 0002091  89.4276 270.7159 14.34217161266294
IRIDIUM 170             
1 43930U 19002J   24043.38375929  .00002520  00000+0  39562-3 0  9996
2 43930  86.6146 351.2836 0002324  88.7120 271.4363 14.72256709273345
IRIDIUM 167             
1 43931U 19002K   24043.37433501  .00000499  00000+0  17123-3 0  9999
2 43931  86.4012 351.2511 0002245  89.0677 271.0776 14.34220135266291
IRIDIUM 181             
1 56726U 23068S   24043.50557621  .00000399  00000+0  11208-3 0  9994
2 56726  86.8613  38.8020 0002386 105.3114 254.8351 14.43578579 39008
IRIDIUM 177             
1 56727U 23068T   24043.41858895  .00003449  00000+0  45027-3 0  9997
2 56727  86.1997  15.0532 0002470  92.4858 267.6646 14.80245187 39777
IRIDIUM 174             
1 56728U 23068U   24043.41314659  .00003430  00000+0  44768-3 0  9994
2 56728  86.2004  15.1490 0002396  93.6642 266.4853 14.80245436 39777
IRIDIUM 178             
1 56729U 23068V   24043.47557869  .00003297  00000+0  43025-3 0  9999
2 56729  86.5787  26.6182 0002680  91.4483 268.7045 14.80249234 39788
IRIDIUM 179             
1 56730U 23068W   24043.47023918  .00003309  00000+0  43180-3 0  9990
2 56730  86.6791  29.1695 0002539  96.3986 263.7524 14.80247813 39786
